STARLINK-2531           
1 48483U 21040BH  26068.65217472 -.00003029  00000+0 -90251-4 0  9996
2 48483  53.1602 194.2459 0001161 115.6639 244.4482 15.30179272266458
JINJUSAT-1B             
1 63210U 25052A   26068.66363707  .00019955  00000+0  68430-3 0  9998
2 63210  97.4113 325.4613 0005550  82.1930 277.9941 15.30194857 54866
