[{"OBJECT_NAME":"STARLINK-2531","OBJECT_ID":"2021-040BH","EPOCH":"2026-03-09T15:39:07.895808","MEAN_MOTION":15.30179272,"ECCENTRICITY":0.00011615,"INCLINATION":53.1602,"RA_OF_ASC_NODE":194.2459,"ARG_OF_PERICENTER":115.6639,"MEAN_ANOMALY":244.4482,"EPHEMERIS_TYPE":0,"CLASSIFICATION_TYPE":"U","NORAD_CAT_ID":48483,"ELEMENT_SET_NO":999,"REV_AT_EPOCH":26645,"BSTAR":-9.0250944e-5,"MEAN_MOTION_DOT":-3.029e-5,"MEAN_MOTION_DDOT":0},{"OBJECT_NAME":"JINJUSAT-1B","OBJECT_ID":"2025-052A","EPOCH":"2026-03-09T15:55:38.242848","MEAN_MOTION":15.30194857,"ECCENTRICITY":0.00055504,"INCLINATION":97.4113,"RA_OF_ASC_NODE":325.4613,"ARG_OF_PERICENTER":82.193,"MEAN_ANOMALY":277.9941,"EPHEMERIS_TYPE":0,"CLASSIFICATION_TYPE":"U","NORAD_CAT_ID":63210,"ELEMENT_SET_NO":999,"REV_AT_EPOCH":5486,"BSTAR":0.00068430401,"MEAN_MOTION_DOT":0.00019955,"MEAN_MOTION_DDOT":0}]
